start=new Date('2021-12-22T00:00:00.000Z').valueOf();
sats=[{"ECCENTRICITY":"0.00037990","SEMIMAJOR_AXIS":"6737.991","FILE":"3246784","CLASSIFICATION_TYPE":"U","COUNTRY_CODE":"US","MEAN_ANOMALY":"259.2127","TLE_LINE2":"2 49166  69.9979 209.1136 0003799 270.9207 259.2127 15.69665409  3680","SITE":"AFWTR","EPOCH":"2021-12-21T22:00:00.999936","MEAN_ELEMENT_THEORY":"SGP4","GP_ID":"192179495","ARG_OF_PERICENTER":"270.9207","MEAN_MOTION":"15.69665409","OBJECT_ID":"2021-082AN","PERIAPSIS":"357.297","NORAD_CAT_ID":"49166","ELEMENT_SET_NO":"999","EPHEMERIS_TYPE":"0","REF_FRAME":"TEME","OBJECT_TYPE":"PAYLOAD","TLE_LINE1":"1 49166U 21082AN  21355.91667824  .00044861  00000-0  37683-3 0  9991","PERIOD":"91.739","MEAN_MOTION_DDOT":"0.0000000000000","REV_AT_EPOCH":"368","OBJECT_NAME":"STARLINK-3089","DECAY_DATE":null,"APOAPSIS":"362.416","MEAN_MOTION_DOT":"0.00044861","RCS_SIZE":"LARGE","CENTER_NAME":"EARTH","RA_OF_ASC_NODE":"209.1136","INCLINATION":"69.9979","BSTAR":"0.00037683000000","LAUNCH_DATE":"2021-09-14","TIME_SYSTEM":"UTC"},{"PERIAPSIS":"535.480","NORAD_CAT_ID":"49167","MEAN_MOTION":"15.09538875","OBJECT_ID":"2021-082AP","EPHEMERIS_TYPE":"0","ELEMENT_SET_NO":"999","SITE":"AFWTR","TLE_LINE2":"2 49167  70.0000 214.4447 0003080 272.0270 286.4215 15.09538875  3623","MEAN_ANOMALY":"286.4215","GP_ID":"192179708","ARG_OF_PERICENTER":"272.0270","EPOCH":"2021-12-21T22:00:00.999936","MEAN_ELEMENT_THEORY":"SGP4","COUNTRY_CODE":"US","ECCENTRICITY":"0.00030800","CLASSIFICATION_TYPE":"U","SEMIMAJOR_AXIS":"6915.745","FILE":"3246784","LAUNCH_DATE":"2021-09-14","TIME_SYSTEM":"UTC","INCLINATION":"70.0000","BSTAR":"-0.04400500000000","MEAN_MOTION_DOT":"-0.00662424","APOAPSIS":"539.740","CENTER_NAME":"EARTH","RA_OF_ASC_NODE":"214.4447","RCS_SIZE":"LARGE","REV_AT_EPOCH":"362","OBJECT_NAME":"STARLINK-3054","DECAY_DATE":null,"REF_FRAME":"TEME","OBJECT_TYPE":"PAYLOAD","PERIOD":"95.393","MEAN_MOTION_DDOT":"0.0000000000000","TLE_LINE1":"1 49167U 21082AP  21355.91667824 -.00662424  00000-0 -44005-1 0  9999"},{"REF_FRAME":"TEME","OBJECT_TYPE":"PAYLOAD","TLE_LINE1":"1 49168U 21082AQ  21355.91667824  .00046073  00000-0  38710-3 0  9992","PERIOD":"91.740","MEAN_MOTION_DDOT":"0.0000000000000","REV_AT_EPOCH":"368","OBJECT_NAME":"STARLINK-3101","DECAY_DATE":null,"APOAPSIS":"362.272","MEAN_MOTION_DOT":"0.00046073","RCS_SIZE":"LARGE","CENTER_NAME":"EARTH","RA_OF_ASC_NODE":"209.1017","INCLINATION":"69.9976","BSTAR":"0.00038710000000","LAUNCH_DATE":"2021-09-14","TIME_SYSTEM":"UTC","ECCENTRICITY":"0.00035400","SEMIMAJOR_AXIS":"6738.022","FILE":"3246784","CLASSIFICATION_TYPE":"U","COUNTRY_CODE":"US","MEAN_ANOMALY":"267.3030","SITE":"AFWTR","TLE_LINE2":"2 49168  69.9976 209.1017 0003540 271.3308 267.3030 15.69654865  3685","EPOCH":"2021-12-21T22:00:00.999936","MEAN_ELEMENT_THEORY":"SGP4","GP_ID":"192180346","ARG_OF_PERICENTER":"271.3308","MEAN_MOTION":"15.69654865","OBJECT_ID":"2021-082AQ","PERIAPSIS":"357.501","NORAD_CAT_ID":"49168","ELEMENT_SET_NO":"999","EPHEMERIS_TYPE":"0"},{"COUNTRY_CODE":"US","CLASSIFICATION_TYPE":"U","SEMIMAJOR_AXIS":"6738.017","FILE":"3246784","ECCENTRICITY":"0.00038800","EPHEMERIS_TYPE":"0","ELEMENT_SET_NO":"999","PERIAPSIS":"357.268","NORAD_CAT_ID":"49169","MEAN_MOTION":"15.69656345","OBJECT_ID":"2021-082AR","GP_ID":"192180559","ARG_OF_PERICENTER":"269.5369","MEAN_ELEMENT_THEORY":"SGP4","EPOCH":"2021-12-21T22:00:00.999936","SITE":"AFWTR","TLE_LINE2":"2 49169  69.9983 209.1081 0003880 269.5369 264.8274 15.69656345  3685","MEAN_ANOMALY":"264.8274","DECAY_DATE":null,"REV_AT_EPOCH":"368","OBJECT_NAME":"STARLINK-3046","PERIOD":"91.740","MEAN_MOTION_DDOT":"0.0000000000000","TLE_LINE1":"1 49169U 21082AR  21355.91667824  .00044197  00000-0  37144-3 0  9998","REF_FRAME":"TEME","OBJECT_TYPE":"PAYLOAD","LAUNCH_DATE":"2021-09-14","TIME_SYSTEM":"UTC","INCLINATION":"69.9983","BSTAR":"0.00037144000000","CENTER_NAME":"EARTH","RA_OF_ASC_NODE":"209.1081","RCS_SIZE":"LARGE","MEAN_MOTION_DOT":"0.00044197","APOAPSIS":"362.497"},{"EPHEMERIS_TYPE":"0","ELEMENT_SET_NO":"999","PERIAPSIS":"533.491","NORAD_CAT_ID":"49170","MEAN_MOTION":"15.10159431","OBJECT_ID":"2021-082AS","GP_ID":"192179923","ARG_OF_PERICENTER":"274.7878","MEAN_ELEMENT_THEORY":"SGP4","EPOCH":"2021-12-21T22:00:00.999936","TLE_LINE2":"2 49170  70.0001 214.4496 0003217 274.7878  35.8452 15.10159431  3625","SITE":"AFWTR","MEAN_ANOMALY":"35.8452","COUNTRY_CODE":"US","CLASSIFICATION_TYPE":"U","SEMIMAJOR_AXIS":"6913.850","FILE":"3246784","ECCENTRICITY":"0.00032170","LAUNCH_DATE":"2021-09-14","TIME_SYSTEM":"UTC","INCLINATION":"70.0001","BSTAR":"-0.04331700000000","CENTER_NAME":"EARTH","RA_OF_ASC_NODE":"214.4496","RCS_SIZE":"LARGE","MEAN_MOTION_DOT":"-0.00663284","APOAPSIS":"537.940","DECAY_DATE":null,"REV_AT_EPOCH":"362","OBJECT_NAME":"STARLINK-3074","PERIOD":"95.354","MEAN_MOTION_DDOT":"0.0000000000000","TLE_LINE1":"1 49170U 21082AS  21355.91667824 -.00663284  00000-0 -43317-1 0  9993","REF_FRAME":"TEME","OBJECT_TYPE":"PAYLOAD"},{"OBJECT_TYPE":"PAYLOAD","REF_FRAME":"TEME","TLE_LINE1":"1 49171U 21082AT  21355.91667824 -.00662028  00000-0 -43936-1 0  9996","MEAN_MOTION_DDOT":"0.0000000000000","PERIOD":"95.391","OBJECT_NAME":"STARLINK-3107","REV_AT_EPOCH":"362","DECAY_DATE":null,"APOAPSIS":"539.643","MEAN_MOTION_DOT":"-0.00662028","RCS_SIZE":"LARGE","RA_OF_ASC_NODE":"214.4637","CENTER_NAME":"EARTH","BSTAR":"-0.04393600000000","INCLINATION":"70.0000","TIME_SYSTEM":"UTC","LAUNCH_DATE":"2021-09-14","ECCENTRICITY":"0.00030890","FILE":"3246784","SEMIMAJOR_AXIS":"6915.642","CLASSIFICATION_TYPE":"U","COUNTRY_CODE":"US","MEAN_ANOMALY":"297.8287","SITE":"AFWTR","TLE_LINE2":"2 49171  70.0000 214.4637 0003089 274.3645 297.8287 15.09572665  3629","MEAN_ELEMENT_THEORY":"SGP4","EPOCH":"2021-12-21T22:00:00.999936","ARG_OF_PERICENTER":"274.3645","GP_ID":"192180136","OBJECT_ID":"2021-082AT","MEAN_MOTION":"15.09572665","NORAD_CAT_ID":"49171","PERIAPSIS":"535.371","ELEMENT_SET_NO":"999","EPHEMERIS_TYPE":"0"},{"FILE":"3246655","SEMIMAJOR_AXIS":"6737.888","CLASSIFICATION_TYPE":"U","ECCENTRICITY":"0.00034220","COUNTRY_CODE":"US","MEAN_ELEMENT_THEORY":"SGP4","EPOCH":"2021-12-21T22:00:00.999936","ARG_OF_PERICENTER":"272.0489","GP_ID":"192153855","MEAN_ANOMALY":"275.0940","TLE_LINE2":"2 49172  69.9983 209.0937 0003422 272.0489 275.0940 15.69701530 15608","SITE":"AFWTR","ELEMENT_SET_NO":"999","EPHEMERIS_TYPE":"0","OBJECT_ID":"2021-082AU","MEAN_MOTION":"15.69701530","NORAD_CAT_ID":"49172","PERIAPSIS":"357.447","TLE_LINE1":"1 49172U 21082AU  21355.91667824  .00044327  00000-0  37186-3 0  9993","MEAN_MOTION_DDOT":"0.0000000000000","PERIOD":"91.737","OBJECT_TYPE":"PAYLOAD","REF_FRAME":"TEME","DECAY_DATE":null,"OBJECT_NAME":"STARLINK-3091","REV_AT_EPOCH":"1560","RCS_SIZE":"LARGE","RA_OF_ASC_NODE":"209.0937","CENTER_NAME":"EARTH","APOAPSIS":"362.059","MEAN_MOTION_DOT":"0.00044327","BSTAR":"0.00037186000000","INCLINATION":"69.9983","TIME_SYSTEM":"UTC","LAUNCH_DATE":"2021-09-14"},{"COUNTRY_CODE":"US","FILE":"3246650","SEMIMAJOR_AXIS":"6737.892","CLASSIFICATION_TYPE":"U","ECCENTRICITY":"0.00033050","ELEMENT_SET_NO":"999","EPHEMERIS_TYPE":"0","OBJECT_ID":"2021-082AV","MEAN_MOTION":"15.69700239","NORAD_CAT_ID":"49173","PERIAPSIS":"357.530","MEAN_ELEMENT_THEORY":"SGP4","EPOCH":"2021-12-21T22:00:00.999936","ARG_OF_PERICENTER":"262.6781","GP_ID":"192153656","MEAN_ANOMALY":"190.8985","SITE":"AFWTR","TLE_LINE2":"2 49173  69.9979 208.7842 0003305 262.6781 190.8985 15.69700239 15614","DECAY_DATE":null,"OBJECT_NAME":"STARLINK-3045","REV_AT_EPOCH":"1561","TLE_LINE1":"1 49173U 21082AV  21355.91667824  .00045188  00000-0  37904-3 0  9998","MEAN_MOTION_DDOT":"0.0000000000000","PERIOD":"91.737","OBJECT_TYPE":"PAYLOAD","REF_FRAME":"TEME","BSTAR":"0.00037904000000","INCLINATION":"69.9979","TIME_SYSTEM":"UTC","LAUNCH_DATE":"2021-09-14","RCS_SIZE":"LARGE","RA_OF_ASC_NODE":"208.7842","CENTER_NAME":"EARTH","APOAPSIS":"361.984","MEAN_MOTION_DOT":"0.00045188"},{"TLE_LINE1":"1 49174U 21082AW  21355.91667824 -.00048109  00000-0 -40377-3 0  9995","PERIOD":"91.735","MEAN_MOTION_DDOT":"0.0000000000000","REF_FRAME":"TEME","OBJECT_TYPE":"PAYLOAD","DECAY_DATE":null,"REV_AT_EPOCH":"368","OBJECT_NAME":"STARLINK-3047","RCS_SIZE":"LARGE","CENTER_NAME":"EARTH","RA_OF_ASC_NODE":"209.1041","APOAPSIS":"362.131","MEAN_MOTION_DOT":"-0.00048109","INCLINATION":"69.9968","BSTAR":"-0.00040377000000","LAUNCH_DATE":"2021-09-14","TIME_SYSTEM":"UTC","SEMIMAJOR_AXIS":"6737.798","FILE":"3246784","CLASSIFICATION_TYPE":"U","ECCENTRICITY":"0.00036640","COUNTRY_CODE":"US","EPOCH":"2021-12-21T22:00:00.999936","MEAN_ELEMENT_THEORY":"SGP4","GP_ID":"192179496","ARG_OF_PERICENTER":"271.9373","MEAN_ANOMALY":"270.9762","SITE":"AFWTR","TLE_LINE2":"2 49174  69.9968 209.1041 0003664 271.9373 270.9762 15.69733139  3689","ELEMENT_SET_NO":"999","EPHEMERIS_TYPE":"0","MEAN_MOTION":"15.69733139","OBJECT_ID":"2021-082AW","PERIAPSIS":"357.194","NORAD_CAT_ID":"49174"},{"PERIOD":"91.739","MEAN_MOTION_DDOT":"0.0000000000000","TLE_LINE1":"1 49175U 21082AX  21355.91667824  .00046386  00000-0  38952-3 0  9995","REF_FRAME":"TEME","OBJECT_TYPE":"PAYLOAD","DECAY_DATE":null,"REV_AT_EPOCH":"368","OBJECT_NAME":"STARLINK-3087","CENTER_NAME":"EARTH","RA_OF_ASC_NODE":"209.0944","RCS_SIZE":"LARGE","MEAN_MOTION_DOT":"0.00046386","APOAPSIS":"362.403","LAUNCH_DATE":"2021-09-14","TIME_SYSTEM":"UTC","INCLINATION":"69.9966","BSTAR":"0.00038952000000","CLASSIFICATION_TYPE":"U","SEMIMAJOR_AXIS":"6737.992","FILE":"3246784","ECCENTRICITY":"0.00037780","COUNTRY_CODE":"US","GP_ID":"192179709","ARG_OF_PERICENTER":"271.5847","EPOCH":"2021-12-21T22:00:00.999936","MEAN_ELEMENT_THEORY":"SGP4","SITE":"AFWTR","TLE_LINE2":"2 49175  69.9966 209.0944 0003778 271.5847 277.6946 15.69665213  3682","MEAN_ANOMALY":"277.6946","EPHEMERIS_TYPE":"0","ELEMENT_SET_NO":"999","PERIAPSIS":"357.311","NORAD_CAT_ID":"49175","MEAN_MOTION":"15.69665213","OBJECT_ID":"2021-082AX"}];
